{"type":"FeatureCollection","features":[{"type":"Feature","id":"way/305886393","properties":{"building":"school","name":"Preparatoria","id":"way/305886393","height":6},"geometry":{"type":"Polygon","coordinates":[[[-102.8473846,21.3696073],[-102.8474552,21.3693349],[-102.8476909,21.3693744],[-102.8479093,21.3691982],[-102.8479202,21.3691101],[-102.8472434,21.3684324],[-102.8469923,21.3683917],[-102.8466575,21.3693879],[-102.8473846,21.3696073]]]}},{"type":"Feature","id":"way/560217985","properties":{"building":"yes","id":"way/560217985","height":11},"geometry":{"type":"Polygon","coordinates":[[[-102.8518407,21.3672479],[-102.8520285,21.3669544],[-102.8517979,21.3668265],[-102.8516102,21.36712],[-102.8518407,21.3672479]]]}},{"type":"Feature","id":"way/560217986","properties":{"building":"yes","id":"way/560217986","height":12},"geometry":{"type":"Polygon","coordinates":[[[-102.8534125,21.3663799],[-102.853424,21.3663359],[-102.8533397,21.3663168],[-102.8533518,21.3662706],[-102.8531999,21.3662362],[-102.8531764,21.3663264],[-102.8534125,21.3663799]]]}},{"type":"Feature","id":"way/560217987","properties":{"building":"yes","id":"way/560217987","height":12},"geometry":{"type":"Polygon","coordinates":[[[-102.8532958,21.3665341],[-102.853319,21.3664515],[-102.8530394,21.3663834],[-102.8530162,21.366466],[-102.8532958,21.3665341]]]}},{"type":"Feature","id":"way/560217988","properties":{"building":"yes","id":"way/560217988","height":9},"geometry":{"type":"Polygon","coordinates":[[[-102.8532884,21.3665647],[-102.8531764,21.3665335],[-102.8531522,21.3666088],[-102.8532642,21.3666401],[-102.8532884,21.3665647]]]}},{"type":"Feature","id":"way/560217989","properties":{"building":"yes","id":"way/560217989","height":4},"geometry":{"type":"Polygon","coordinates":[[[-102.8535379,21.366694],[-102.8536177,21.3664492],[-102.8533717,21.3663796],[-102.8532919,21.3666244],[-102.8535379,21.366694]]]}},{"type":"Feature","id":"way/560217990","properties":{"building":"yes","id":"way/560217990","height":14},"geometry":{"type":"Polygon","coordinates":[[[-102.8534393,21.3660658],[-102.8534647,21.3659812],[-102.8531864,21.3659088],[-102.853161,21.3659933],[-102.8534393,21.3660658]]]}},{"type":"Feature","id":"way/560217991","properties":{"building":"yes","id":"way/560217991","height":14},"geometry":{"type":"Polygon","coordinates":[[[-102.8534695,21.3661351],[-102.8532073,21.3660645],[-102.8531811,21.3661491],[-102.8534432,21.3662196],[-102.8534695,21.3661351]]]}},{"type":"Feature","id":"way/560217992","properties":{"building":"yes","id":"way/560217992","height":5},"geometry":{"type":"Polygon","coordinates":[[[-102.8540166,21.3659989],[-102.8538349,21.3659552],[-102.8538159,21.366024],[-102.8539976,21.3660677],[-102.8540166,21.3659989]]]}},{"type":"Feature","id":"way/560217993","properties":{"building":"yes","id":"way/560217993","height":5},"geometry":{"type":"Polygon","coordinates":[[[-102.8540052,21.3656411],[-102.8537183,21.3655706],[-102.8536897,21.3656714],[-102.8539767,21.3657419],[-102.8540052,21.3656411]]]}},{"type":"Feature","id":"way/560217994","properties":{"building":"yes","id":"way/560217994","height":4},"geometry":{"type":"Polygon","coordinates":[[[-102.8540871,21.3654806],[-102.8538222,21.3654163],[-102.8537965,21.365508],[-102.8540614,21.3655723],[-102.8540871,21.3654806]]]}},{"type":"Feature","id":"way/560217995","properties":{"building":"yes","id":"way/560217995","height":5},"geometry":{"type":"Polygon","coordinates":[[[-102.8541628,21.365224],[-102.8541879,21.3651233],[-102.8540605,21.3650958],[-102.8540354,21.3651965],[-102.8541628,21.365224]]]}},{"type":"Feature","id":"way/560217996","properties":{"building":"yes","id":"way/560217996","height":6},"geometry":{"type":"Polygon","coordinates":[[[-102.8541501,21.3653014],[-102.8538276,21.3652202],[-102.853798,21.3653219],[-102.8541206,21.3654031],[-102.8541501,21.3653014]]]}},{"type":"Feature","id":"way/560217997","properties":{"building":"yes","id":"way/560217997","height":7},"geometry":{"type":"Polygon","coordinates":[[[-102.8536217,21.3652827],[-102.8534178,21.3652333],[-102.8533908,21.3653303],[-102.8535946,21.3653796],[-102.8536217,21.3652827]]]}},{"type":"Feature","id":"way/560217998","properties":{"building":"yes","id":"way/560217998","height":4},"geometry":{"type":"Polygon","coordinates":[[[-102.8537028,21.3652246],[-102.8537299,21.365131],[-102.8534281,21.3650554],[-102.8534011,21.365149],[-102.8537028,21.3652246]]]}},{"type":"Feature","id":"way/560217999","properties":{"building":"yes","id":"way/560217999","height":8},"geometry":{"type":"Polygon","coordinates":[[[-102.8539221,21.3651647],[-102.8540039,21.3648961],[-102.8538232,21.3648484],[-102.8537414,21.3651169],[-102.8539221,21.3651647]]]}},{"type":"Feature","id":"way/623589419","properties":{"addr:city":"Nochistlán de Mejía","amenity":"place_of_worship","building":"yes","name":"Templo de San Francisco de Asís","religion":"christian","id":"way/623589419","height":12},"geometry":{"type":"Polygon","coordinates":[[[-102.8464248,21.3639253],[-102.8464512,21.3638831],[-102.8466163,21.3639728],[-102.8465926,21.3640106],[-102.8466421,21.3640374],[-102.846743,21.3638761],[-102.8467031,21.3638544],[-102.8466771,21.3638959],[-102.8464898,21.3637942],[-102.8465235,21.3637402],[-102.8464521,21.3637014],[-102.8464227,21.363748],[-102.8463504,21.3637085],[-102.8463015,21.3637845],[-102.846377,21.363828],[-102.8463419,21.3638808],[-102.8463699,21.3638969],[-102.8464248,21.3639253]]]}},{"type":"Feature","id":"way/623589420","properties":{"building":"church","id":"way/623589420","height":11},"geometry":{"type":"Polygon","coordinates":[[[-102.8464227,21.363748],[-102.8464521,21.3637014],[-102.8464914,21.3636399],[-102.8464494,21.3636166],[-102.8464069,21.3635931],[-102.8463376,21.3637013],[-102.8463504,21.3637085],[-102.8464227,21.363748]]]}},{"type":"Feature","id":"way/623589421","properties":{"building":"church","id":"way/623589421","height":14},"geometry":{"type":"Polygon","coordinates":[[[-102.846377,21.363828],[-102.8463015,21.3637845],[-102.846229,21.3638937],[-102.8463325,21.3639533],[-102.8463699,21.3638969],[-102.8463419,21.3638808],[-102.846377,21.363828]]]}},{"type":"Feature","id":"way/623589422","properties":{"building":"church","id":"way/623589422","height":4},"geometry":{"type":"Polygon","coordinates":[[[-102.8467373,21.36383],[-102.846866,21.3636277],[-102.8464982,21.3634249],[-102.8463952,21.3635867],[-102.8464069,21.3635931],[-102.8464494,21.3636166],[-102.8465271,21.3634947],[-102.846596,21.3635327],[-102.8465244,21.3636453],[-102.8465733,21.3636722],[-102.8466277,21.3635866],[-102.8467894,21.3636758],[-102.8467032,21.3638112],[-102.8467373,21.36383]]]}},{"type":"Feature","id":"way/623591411","properties":{"building":"commercial","name":"El Parián","id":"way/623591411","height":4},"geometry":{"type":"Polygon","coordinates":[[[-102.8472921,21.3638809],[-102.8470989,21.3637547],[-102.8466803,21.3643107],[-102.8468735,21.3644369],[-102.8472921,21.3638809]]]}},{"type":"Feature","id":"way/623591412","properties":{"building":"church","name":"Templo de San José","id":"way/623591412","height":12},"geometry":{"type":"Polygon","coordinates":[[[-102.8464097,21.3648009],[-102.8464425,21.3647553],[-102.8464027,21.3647305],[-102.8464808,21.3646216],[-102.8465078,21.3646384],[-102.8465297,21.3646078],[-102.8465016,21.3645903],[-102.8465138,21.3645733],[-102.8464493,21.3645331],[-102.8464392,21.3645472],[-102.8464142,21.3645317],[-102.8463926,21.3645618],[-102.8464189,21.3645782],[-102.8463414,21.3646862],[-102.8463053,21.3646637],[-102.8462699,21.364713],[-102.8463075,21.3647364],[-102.8462763,21.3647799],[-102.8463301,21.3648135],[-102.8463609,21.3647706],[-102.8464097,21.3648009]]]}},{"type":"Feature","id":"way/649865908","properties":{"amenity":"place_of_worship","building":"yes","name":"capilla santa cecilia","religion":"christian","id":"way/649865908","height":12},"geometry":{"type":"Polygon","coordinates":[[[-102.8456844,21.353378],[-102.8456812,21.3532088],[-102.8455571,21.3532108],[-102.8455603,21.35338],[-102.8456844,21.353378]]]}}]}